QIANFAN-17              
1 60395U 24140S   25363.25027088  .00000164  00000+0  23452-3 0  9994
2 60395  88.9786 297.7287 0015277 151.1346 209.0653 13.50980397 70362
QIANFAN-18              
1 60396U 24140T   25363.30375240  .00000156  00000+0  22293-3 0  9990
2 60396  88.9779 297.2557 0015151 134.0927 226.1474 13.50980404 69768
QIANFAN-19              
1 61552U 24185A   25363.28201047  .00000652  00000+0  33412-3 0  9990
2 61552  88.9812  76.0492 0005104 240.5809 119.4868 14.14313890 72003
QIANFAN-20              
1 61553U 24185B   25363.16544807  .00000602  00000+0  34060-3 0  9997
2 61553  88.9811  76.4030 0003635 301.4056  58.6772 14.08860646 71807
QIANFAN-21              
1 61554U 24185C   25363.20958720  .00000894  00000+0  39369-3 0  9996
2 61554  88.9727  75.0537 0008767 317.1293  42.9214 14.22631551 72310
QIANFAN-22              
1 61555U 24185D   25363.17428652  .00000233  00000+0  19000-3 0  9996
2 61555  88.9795  77.4490 0004696 317.2958  42.7848 13.86309633 71217
QIANFAN-23              
1 61556U 24185E   25363.23410842  .00000629  00000+0  31013-3 0  9993
2 61556  88.9804  75.8566 0005618 257.4110 102.6449 14.16309514 72086
QIANFAN-24              
1 61557U 24185F   25363.26865883  .00000805  00000+0  34579-3 0  9992
2 61557  88.9785  75.2305 0007762 235.2369 124.8093 14.23832763 72370
